ELYSIUM STAR 2 & LFF    
1 43760U 18099C   24221.92205242  .00082557  00000+0  26966-2 0  9991
2 43760  97.5117 290.0023 0005886 102.5298 257.6602 15.31408204311294
